NORAD_CAT_ID,OBJECT_NAME,OBJECT_TYPE,EPOCH,MEAN_MOTION,ECCENTRICITY,INCLINATION,RA_OF_ASC_NODE,ARG_OF_PERICENTER,MEAN_ANOMALY,BSTAR,MEAN_MOTION_DOT,MEAN_MOTION_DDOT,TLE_LINE0,TLE_LINE1,TLE_LINE2,SEMIMAJOR_AXIS,PERIOD,APOGEE,PERIGEE,DECAYED
52274.0,STARLINK-3790,PAYLOAD,2024-06-03 14:56:59,15.08850647,0.0001536,53.218,120.4495,87.9802,272.1366,-1.8733e-05,-5.86e-06,0.0,0 STARLINK-3790,1 52274U 22041P   24155.62290735 -.00000586  00000-0 -18733-4 0  9997,2 52274  53.2180 120.4495 0001536  87.9802 272.1366 15.08850647118354,6917.848,95.437,540.775,538.65,0.0
52274.0,STARLINK-3790,PAYLOAD,2024-06-03 21:18:31,15.0884465,0.0001504,53.2179,119.2601,92.1487,267.9677,0.00011027,1.468e-05,0.0,0 STARLINK-3790,1 52274U 22041P   24155.88786847  .00001468  00000-0  11027-3 0  9995,2 52274  53.2179 119.2601 0001504  92.1487 267.9677 15.08844650117172,6917.866,95.437,540.772,538.691,0.0
52274.0,STARLINK-3790,PAYLOAD,2024-06-04 03:40:04,15.08825931,0.0001292,53.2165,118.071,87.9867,272.1273,0.00052872,8.133e-05,0.0,0 STARLINK-3790,1 52274U 22041P   24156.15283471  .00008133  00000-0  52872-3 0  9990,2 52274  53.2165 118.0710 0001292  87.9867 272.1273 15.08825931118434,6917.923,95.438,540.682,538.895,0.0
52274.0,STARLINK-3790,PAYLOAD,2024-06-04 06:50:49,15.08855262,0.0001416,53.2171,117.4759,94.5491,265.5663,0.00017127,2.44e-05,0.0,0 STARLINK-3790,1 52274U 22041P   24156.28529902  .00002440  00000-0  17127-3 0  9995,2 52274  53.2171 117.4759 0001416  94.5491 265.5663 15.08855262118453,6917.834,95.437,540.678,538.719,0.0
52274.0,STARLINK-3790,PAYLOAD,2024-06-05 03:30:51,15.08839864,0.0001436,53.2162,113.606,100.7077,259.4077,6.3585e-05,7.24e-06,0.0,0 STARLINK-3790,1 52274U 22041P   24157.14642988  .00000724  00000-0  63585-4 0  9994,2 52274  53.2162 113.6060 0001436 100.7077 259.4077 15.08839864118583,6917.881,95.438,540.739,538.752,0.0
52274.0,STARLINK-3790,PAYLOAD,2024-06-05 06:41:37,15.08841788,0.0001428,53.2162,113.0126,96.4486,263.6669,8.984e-05,1.142e-05,0.0,0 STARLINK-3790,1 52274U 22041P   24157.27890918  .00001142  00000-0  89840-4 0  9993,2 52274  53.2162 113.0126 0001428  96.4486 263.6669 15.08841788117385,6917.875,95.437,540.728,538.752,0.0
52274.0,STARLINK-3790,PAYLOAD,2024-06-06 01:46:15,15.0883898,0.0001328,53.2173,109.4429,103.8786,256.2354,0.00013647,1.885e-05,0.0,0 STARLINK-3790,1 52274U 22041P   24158.07379092  .00001885  00000-0  13647-3 0  9992,2 52274  53.2173 109.4429 0001328 103.8786 256.2354 15.08838980117500,6917.884,95.438,540.667,538.83,0.0
52274.0,STARLINK-3790,PAYLOAD,2024-06-07 20:41:40,15.08835699,0.0001491,53.2177,101.4139,101.3332,258.7827,9.8133e-06,-1.32e-06,0.0,0 STARLINK-3790,1 52274U 22041P   24159.86227446 -.00000132  00000-0  98133-5 0  9995,2 52274  53.2177 101.4139 0001491 101.3332 258.7827 15.08835699118995,6917.894,95.438,540.79,538.727,0.0
52274.0,STARLINK-3790,PAYLOAD,2024-06-08 03:03:12,15.08845658,0.0001296,53.2179,100.2305,97.204,262.91,0.00013901,1.925e-05,0.0,0 STARLINK-3790,1 52274U 22041P   24160.12722823  .00001925  00000-0  13901-3 0  9993,2 52274  53.2179 100.2305 0001296  97.2040 262.9100 15.08845658119034,6917.863,95.437,540.625,538.832,0.0
52274.0,STARLINK-3790,PAYLOAD,2024-06-08 12:35:31,15.08842181,0.0001282,53.2174,98.4409,97.9493,262.1644,8.5467e-05,1.073e-05,0.0,0 STARLINK-3790,1 52274U 22041P   24160.52466937  .00001073  00000-0  85467-4 0  9999,2 52274  53.2174  98.4409 0001282  97.9493 262.1644 15.08842181117879,6917.874,95.437,540.626,538.852,0.0
52274.0,STARLINK-3790,PAYLOAD,2024-06-08 20:32:28,15.08830422,0.0001793,53.2177,96.9578,84.8166,275.3031,7.3108e-05,8.75e-06,0.0,0 STARLINK-3790,1 52274U 22041P   24160.85588023  .00000875  00000-0  73108-4 0  9994,2 52274  53.2177  96.9578 0001793  84.8166 275.3031 15.08830422119144,6917.91,95.438,541.015,538.534,0.0
52274.0,STARLINK-3790,PAYLOAD,2024-06-09 02:54:00,15.08829095,0.0001515,53.2193,95.7724,105.6039,254.512,3.5056e-05,2.7e-06,0.0,0 STARLINK-3790,1 52274U 22041P   24161.12084398  .00000270  00000-0  35056-4 0  9990,2 52274  53.2193  95.7724 0001515 105.6039 254.5120 15.08829095117965,6917.914,95.438,540.827,538.731,0.0
52274.0,STARLINK-3790,PAYLOAD,2024-06-10 04:20:10,15.08846098,0.0001549,53.2179,91.0143,104.5782,255.5382,2.5926e-05,1.25e-06,0.0,0 STARLINK-3790,1 52274U 22041P   24162.18067734  .00000125  00000-0  25926-4 0  9996,2 52274  53.2179  91.0143 0001549 104.5782 255.5382 15.08846098119340,6917.862,95.437,540.798,538.655,0.0
52274.0,STARLINK-3790,PAYLOAD,2024-06-10 12:17:06,15.08835594,0.0001413,53.2169,89.5246,86.9935,273.1219,0.00046981,7.196e-05,0.0,0 STARLINK-3790,1 52274U 22041P   24162.51188547  .00007196  00000-0  46981-3 0  9997,2 52274  53.2169  89.5246 0001413  86.9935 273.1219 15.08835594119397,6917.894,95.438,540.736,538.781,0.0
52274.0,STARLINK-3790,PAYLOAD,2024-06-11 12:07:53,15.08846833,0.0001532,53.2179,85.0657,87.0624,273.0543,0.00022671,3.323e-05,0.0,0 STARLINK-3790,1 52274U 22041P   24163.50548046  .00003323  00000-0  22671-3 0  9999,2 52274  53.2179  85.0657 0001532  87.0624 273.0543 15.08846833118323,6917.86,95.437,540.784,538.665,0.0
52274.0,STARLINK-3790,PAYLOAD,2024-06-12 00:50:58,15.08850878,0.0001592,53.2176,82.6873,85.3839,274.7335,0.00012974,1.778e-05,0.0,0 STARLINK-3790,1 52274U 22041P   24164.03539736  .00001778  00000-0  12974-3 0  9991,2 52274  53.2176  82.6873 0001592  85.3839 274.7335 15.08850878119623,6917.847,95.437,540.813,538.611,0.0
52274.0,STARLINK-3790,PAYLOAD,2024-06-12 11:58:40,15.08846663,0.0001126,53.2152,80.6006,103.8967,256.215,3.3679e-05,2.48e-06,0.0,0 STARLINK-3790,1 52274U 22041P   24164.49907515  .00000248  00000-0  33679-4 0  9992,2 52274  53.2152  80.6006 0001126 103.8967 256.2150 15.08846663119698,6917.86,95.437,540.504,538.946,0.0
52274.0,STARLINK-3790,PAYLOAD,2024-06-13 03:52:31,15.08839297,0.0001494,53.217,77.6234,111.5214,248.5938,-6.0926e-05,-1.257e-05,0.0,0 STARLINK-3790,1 52274U 22041P   24165.16147994 -.00001257  00000-0 -60926-4 0  9992,2 52274  53.2170  77.6234 0001494 111.5214 248.5938 15.08839297119790,6917.883,95.438,540.781,538.714,0.0
52274.0,STARLINK-3790,PAYLOAD,2024-06-13 11:49:27,15.0884032,0.0001484,53.2187,76.1388,109.6774,250.4379,2.2669e-05,7.3e-07,0.0,0 STARLINK-3790,1 52274U 22041P   24165.49268171  .00000073  00000-0  22669-4 0  9994,2 52274  53.2187  76.1388 0001484 109.6774 250.4379 15.08840320118621,6917.879,95.438,540.771,538.718,0.0
52274.0,STARLINK-3790,PAYLOAD,2024-06-13 22:57:09,15.08845834,0.00015,53.2188,74.0573,107.7772,252.3384,6.0121e-05,6.69e-06,0.0,0 STARLINK-3790,1 52274U 22041P   24165.95635654  .00000669  00000-0  60121-4 0  9995,2 52274  53.2188  74.0573 0001500 107.7772 252.3384 15.08845834118690,6917.863,95.437,540.765,538.69,0.0
52274.0,STARLINK-3790,PAYLOAD,2024-06-14 00:32:32,15.088514,0.0001618,53.2191,73.7597,111.5933,248.5232,2.0185e-05,3.3e-07,0.0,0 STARLINK-3790,1 52274U 22041P   24166.02259396  .00000033  00000-0  20185-4 0  9990,2 52274  53.2191  73.7597 0001618 111.5933 248.5232 15.08851400118705,6917.846,95.437,540.83,538.591,0.0
52274.0,STARLINK-3790,PAYLOAD,2024-06-14 22:47:56,15.088345,0.0001577,53.2191,69.5983,100.0154,260.1017,0.00010289,1.35e-05,0.0,0 STARLINK-3790,1 52274U 22041P   24166.94996487  .00001350  00000-0  10289-3 0  9996,2 52274  53.2191  69.5983 0001577 100.0154 260.1017 15.08834500118847,6917.897,95.438,540.853,538.671,0.0
52274.0,STARLINK-3790,PAYLOAD,2024-06-15 09:55:38,15.0884016,0.0001258,53.2173,67.5207,80.6793,279.4342,6.0367e-05,6.73e-06,0.0,0 STARLINK-3790,1 52274U 22041P   24167.41364329  .00000673  00000-0  60367-4 0  9993,2 52274  53.2173  67.5207 0001258  80.6793 279.4342 15.08840160118913,6917.88,95.438,540.615,538.875,0.0
52274.0,STARLINK-3790,PAYLOAD,2024-06-15 22:38:43,15.08843259,0.0001413,53.2182,65.1425,86.2655,273.8498,9.5156e-05,1.227e-05,0.0,0 STARLINK-3790,1 52274U 22041P   24167.94356167  .00001227  00000-0  95156-4 0  9992,2 52274  53.2182  65.1425 0001413  86.2655 273.8498 15.08843259118991,6917.87,95.437,540.713,538.758,0.0
52274.0,STARLINK-3790,PAYLOAD,2024-06-16 09:46:25,15.08841804,0.0001354,53.2182,63.0621,93.8417,266.273,8.4853e-05,1.063e-05,0.0,0 STARLINK-3790,1 52274U 22041P   24168.40724209  .00001063  00000-0  84853-4 0  9990,2 52274  53.2182  63.0621 0001354  93.8417 266.2730 15.08841804119068,6917.875,95.437,540.677,538.803,0.0
52274.0,STARLINK-3790,PAYLOAD,2024-06-16 22:29:31,15.08830905,0.0001359,53.2191,60.6841,87.4817,272.6331,-4.4559e-05,-9.97e-06,0.0,0 STARLINK-3790,1 52274U 22041P   24168.93717465 -.00000997  00000-0 -44559-4 0  9990,2 52274  53.2191  60.6841 0001359  87.4817 272.6331 15.08830905119140,6917.908,95.438,540.713,538.833,0.0
52274.0,STARLINK-3790,PAYLOAD,2024-06-17 20:44:55,15.088374,0.0001567,53.2198,56.5204,98.5937,261.5233,1.9148e-05,1.7e-07,0.0,0 STARLINK-3790,1 52274U 22041P   24169.86453228  .00000017  00000-0  19148-4 0  9994,2 52274  53.2198  56.5204 0001567  98.5937 261.5233 15.08837400120508,6917.888,95.438,540.837,538.669,0.0
52274.0,STARLINK-3790,PAYLOAD,2024-06-17 22:20:18,15.08839042,0.0001535,53.2196,56.223,102.552,257.5643,4.0203e-07,-2.82e-06,0.0,0 STARLINK-3790,1 52274U 22041P   24169.93077167 -.00000282  00000-0  40203-6 0  9999,2 52274  53.2196  56.2230 0001535 102.5520 257.5643 15.08839042119299,6917.883,95.438,540.81,538.686,0.0
52274.0,STARLINK-3790,PAYLOAD,2024-06-18 09:28:00,15.08843874,0.0001381,53.2186,54.1401,91.2175,268.8975,3.9653e-06,-2.25e-06,0.0,0 STARLINK-3790,1 52274U 22041P   24170.39444821 -.00000225  00000-0  39653-5 0  9999,2 52274  53.2186  54.1401 0001381  91.2175 268.8975 15.08843874119363,6917.869,95.437,540.689,538.778,0.0
52274.0,STARLINK-3790,PAYLOAD,2024-06-18 22:11:05,15.08839496,0.0001355,53.2182,51.761,89.3452,270.7696,0.00018172,2.605e-05,0.0,0 STARLINK-3790,1 52274U 22041P   24170.92436754  .00002605  00000-0  18172-3 0  9998,2 52274  53.2182  51.7610 0001355  89.3452 270.7696 15.08839496119447,6917.882,95.438,540.684,538.81,0.0
